{
    "type": "FeatureCollection",
    "features": [{
            "type": "Feature",
            "properties": {
                "fid": 1,
                "id": 1,
                "road": "영상 예술의 길",
                "level": "A",
                "name": "오! 재미동",
                "address": "서울 중구 퇴계로 214",
                "detail": "충무로역에 위치한 충무로 영상센터이다. 모두를 위한 \"문화 놀이터\"라고 공간을 소개하며 다양한 서적과 DVD를 무료로 즐길 수 있는 아카이브, 작품 전시실, 극장, 사무실, 회의와 모임등을 할 수 있는 커뮤니티룸으로 구성되어 있다."
            },
            "geometry": {
                "type": "Point",
                "coordinates": [
                    126.995495,
                    37.5619034,
                    126.995495
                ]
            }
        },
        {
            "type": "Feature",
            "properties": {
                "fid": 2,
                "id": 2,
                "road": "영상 예술의 길",
                "level": "A",
                "name": "구 대한극장",
                "address": "서울 중구 퇴계로 212 대한극장",
                "detail": "영화 산업의 메카 충무로를 대표하던 대한극장이 위치하였으나, 대형 영화관의 성장과 디지털 미디어의 확산으로 2024년 폐업하였다. 이후 이 공간은 리모델링을 거쳐 세계적으로 유명한 이머시브 공연 ‘슬립노모어(Sleep No More)’를 선보일 예정이다. ‘슬립노모어’는 셰익스피어의 “맥베스”를 현대적으로 재구성한 작품으로, 이곳을 통해 영화 산업으로 대표되는 충무로와 서애로 일대의 정체성을 이어나갈 것이다."
            },
            "geometry": {
                "type": "Point",
                "coordinates": [
                    126.9953477,
                    37.56107320000001,
                    126.9953477
                ]
            }
        },
        {
            "type": "Feature",
            "properties": {
                "fid": 4,
                "id": 4,
                "road": "과거와 현재의 교차로(路), 딸깍발이 길",
                "level": "B",
                "name": "이희승추모비(한옥마을 내)",
                "address": "서울 중구 퇴계로34길 28",
                "detail": "교차로(路)의 핵심 포인트로, 한옥마을 내부에 수필 「딸깍발이」의 저자이자 독립유공자인 이희승 선생의 추모비가 위치해 있다. 「딸깍발이」에 담긴 이희승 선생의 삶과 철학을 느낄 수 있는 이 공간에서 수필 속 묘사된 과거의 정취를 떠올려 볼 수 있다."
            },
            "geometry": {
                "type": "Point",
                "coordinates": [
                    126.9948005,
                    37.558834,
                    126.9948005
                ]
            }
        },
        {
            "type": "Feature",
            "properties": {
                "fid": 5,
                "id": 5,
                "road": "과거와 현재의 교차로(路), 딸깍발이 길",
                "level": "B",
                "name": "스트리트 뮤지엄",
                "address": "서울 중구 퇴계로30길 14",
                "detail": "비영리 전시공간으로서 중구 필동과 한옥마을 일대를 문화공간으로 조성하고 있다. 쉽게 다가갈 수 있는 미술관으로 회화, 설치, 미디어 아트 뿐 아니라 디자인 어워드 수상장 득 다양하고 즐거운 생각들을 담고자 한다."
            },
            "geometry": {
                "type": "Point",
                "coordinates": [
                    126.9918947,
                    37.5602869,
                    126.9918947
                ]
            }
        },
        {
            "type": "Feature",
            "properties": {
                "fid": 6,
                "id": 6,
                "road": "과거와 현재의 교차로(路), 딸깍발이 길",
                "level": "B",
                "name": "카페허블+남산책방",
                "address": "서울 중구 필동로8길 73",
                "detail": "동아시아, 허블출판사에서 운영하는 북카페이다. 공간 대관도 이루어지고 있으며 일정표가 배치되어 있어 자세한 일정 확인이 가능하다. 열람용 책 전시 뿐만 아니라 책구매도 가능하며 특별 제작한 고양이 캐릭터가 곳곳에 붙어있어 이곳의 정체성을 드러낸다."
            },
            "geometry": {
                "type": "Point",
                "coordinates": [
                    126.9933927,
                    37.5566325,
                    126.9933927
                ]
            }
        },
        {
            "type": "Feature",
            "properties": {
                "fid": 7,
                "id": 7,
                "road": "과거와 현재의 교차로(路), 딸깍발이 길",
                "level": "B",
                "name": "아트스페이스노",
                "address": "서울 중구 퇴계로36나길 30 B층",
                "detail": "과거 인쇄소를 활용하여 필동의 과거와 복합 문화를 경험할 수 있는 전시 공간이다. 필동의 역사와 관련된 자료가 전시되어 있으며, 문학과 예술의 경계가 허물어지는 특별한 경험을 제공한다."
            },
            "geometry": {
                "type": "Point",
                "coordinates": [
                    126.9937985,
                    37.5567531,
                    126.9937985
                ]
            }
        },
        {
            "type": "Feature",
            "properties": {
                "fid": 8,
                "id": 8,
                "road": "과거와 현재의 교차로(路), 딸깍발이 길",
                "level": "B",
                "name": "한옥마을 가는 길 공예",
                "address": "서울 중구 퇴계로36가길 36-6 1층",
                "detail": "'한옥마을 가는 길'이라는 문구와 함께 12지신이 풍물놀이를 하는 모습이 그려진 벽화거리가 있다."
            },
            "geometry": {
                "type": "Point",
                "coordinates": [
                    126.9950619,
                    37.5587551,
                    126.9950619
                ]
            }
        },
        {
            "type": "Feature",
            "properties": {
                "fid": 9,
                "id": 9,
                "road": "과거와 현재의 교차로(路), 딸깍발이 길",
                "level": "B",
                "name": "딸깍발이 카페",
                "address": "서울 중구 서애로 18-9",
                "detail": "수필 『딸깍발이』의 이름을 따 지은 카페로, 한 달에 한 번씩 독서모임이 정기적으로 진행되며 지하 공간도 존재한다. \"선비의 정신\"이라는 커피 메뉴가 있다."
            },
            "geometry": {
                "type": "Point",
                "coordinates": [
                    126.9971038,
                    37.560944,
                    126.9971038
                ]
            }
        },
        {
            "type": "Feature",
            "properties": {
                "fid": 10,
                "id": 10,
                "road": "미래로(路), 치유와 도약의 길",
                "level": "C",
                "name": "비주얼마크",
                "address": "서울 중구 퇴계로26길 11",
                "detail": "비주얼마크는 3D 조각 기술과 마이크로 박 인쇄 기술을 기반으로 고객의 디자인을 재해석하고 높은 퀄리티의 인쇄물을 제작하는 회사이다. 1층에 작은 전시실 보유하고 있다. 3D 프린터기, 엽서 밀랍 등 전시하고 있고, 회사 관계자 혹은 업체 방문 시 사용하는 공간이지만 일반인도 관란이 가능하다. "
            },
            "geometry": {
                "type": "Point",
                "coordinates": [
                    126.9904324,
                    37.5604546,
                    126.9904324
                ]
            }
        },
        {
            "type": "Feature",
            "properties": {
                "fid": 11,
                "id": 11,
                "road": "미래로(路), 치유와 도약의 길",
                "level": "C",
                "name": "비주얼마크",
                "address": null,
                "detail": "3D 조각 기술과 마이크로 박 인쇄 기술을 기반으로 고객의 디자인을 재해석하고 높은 퀄리티의 인쇄물을 제작하는 회사이다. 1층에 작은 전시실을 보유하고 있다. 회사 관계자 혹은 업체 방문 시 사용하는 공간이지만, 일반인도 관람이 가능하다."
            },
            "geometry": {
                "type": "Point",
                "coordinates": [
                    126.9904324,
                    37.5604546,
                    126.9904324
                ]
            }
        },
        {
            "type": "Feature",
            "properties": {
                "fid": 12,
                "id": 12,
                "road": "미래로(路), 치유와 도약의 길",
                "level": "C",
                "name": "예장공원",
                "address": "서울 중구 주자동 5-22",
                "detail": "조선시대에는 군사들의 훈련장이었고, 일제강점기에는 통감부가 들어섰으며, 군사독재 시절에는 고문 수사를 행하던 중앙정보부가 있던 자리이다. 역사적으로 오랜 시간 고립된 장소가 이제는 우리나라 근현대사의 아픈 역사를 품은 공원이 되었다. 이곳은 수목이 우거진 지상 공원과 건축미를 뽐내는 지하 공간으로 구성되어 있다. 지하에는 예장마당과 이회영 기념관 등이, 지상에는 중앙정보부의 고문실을 재현한 '기억6'과 조선총독부 관사 터를 그대로 보존한 '유구터' 등의 역사적 공간이 자리잡고 있다."
            },
            "geometry": {
                "type": "Point",
                "coordinates": [
                    126.9888931,
                    37.5604505,
                    126.9888931
                ]
            }
        },
        {
            "type": "Feature",
            "properties": {
                "fid": 3,
                "id": 3,
                "road": "미래로(路), 치유와 도약의 길",
                "level": "C",
                "name": "소방센터(옛 중정사무동)",
                "address": null,
                "detail": "옛 중앙정보부 사무동이었던 공간이 현재는 서울특별시 소방재난본부로 활용되고 있다. 중앙정보부가 위치해 있던 남산 자락은 민주화를 꿈꿨던 많은 이들이 고통받은 장소이다."
            },
            "geometry": {
                "type": "Point",
                "coordinates": [
                    126.9890629,
                    37.5594663,
                    126.9890629
                ]
            }
        },
        {
            "type": "Feature",
            "properties": {
                "fid": 13,
                "id": 13,
                "road": "미래로(路), 치유와 도약의 길",
                "level": "C",
                "name": "문학의 집 서울(옛 중정공관)",
                "address": "서울 중구 퇴계로26길 65",
                "detail": "한-러 친교 기념으로 세운 톨스토이 동상과 과거 중앙정보부장이 거주하던 중정공관 건물이 있다. 현재는 서울미래유산으로 지정되어, 도심 속의 문화공간으로서 이용되고 있다. 이곳을 지나 안쪽에 위치한 건물에서는 대관 전시가 진행되고 있다."
            },
            "geometry": {
                "type": "Point",
                "coordinates": [
                    126.989374,
                    37.5583642,
                    126.989374
                ]
            }
        },
        {
            "type": "Feature",
            "properties": {
                "fid": 14,
                "id": 14,
                "road": "미래로(路), 치유와 도약의 길",
                "level": "C",
                "name": "위안부 기억의 터(인권의 숲)",
                "address": "서울 중구 퇴계로26가길 6",
                "detail": "일본군 위안부 기억의 터는 서울특별시 중구 예장동 남산에 있는 공간으로 2016년 개장했다. '기억의 터'는 위안부 피해자 할머니들을 기리는 추모공원으로 그들의 증언록과 피해기록, 일제의 만행 등을 기록한 내용을 중심으로 조성되었고 인권과 평화의 의미를 담고 있는 공간이다."
            },
            "geometry": {
                "type": "Point",
                "coordinates": [
                    126.9904383,
                    37.5591336,
                    126.9904383
                ]
            }
        },
        {
            "type": "Feature",
            "properties": {
                "fid": 15,
                "id": 15,
                "road": "미래로(路), 치유와 도약의 길",
                "level": "C",
                "name": "유스호스텔(옛 중정본부)",
                "address": null,
                "detail": "기억의 터를 지나서 길을 따라 걸으며 세계인권선언을 읽다 보면 이곳에 도착할 수 있다. 지금은 서울유스호스텔이지만, 과거에는 중앙정보부 본관으로 사용되었다. 당시의 고문 수사로 인한 인권 침해를 기억하며 세운 우체통 모양의 건물 표석을 볼 수 있다."
            },
            "geometry": {
                "type": "Point",
                "coordinates": [
                    126.991036,
                    37.5584955,
                    126.991036
                ]
            }
        },
        {
            "type": "Feature",
            "properties": {
                "fid": 16,
                "id": 16,
                "road": "과거로(路), 동국의 불교와 역사의 길",
                "level": "D",
                "name": "동대입구역 6번 출구",
                "address": null,
                "detail": "과거로(路), 동국의 불교와 역사의 길'의 시작점으로, 3호선을 타고 도착할 수 있다."
            },
            "geometry": {
                "type": "Point",
                "coordinates": [
                    127.0052339,
                    37.5589055,
                    127.0052339
                ]
            }
        },
        {
            "type": "Feature",
            "properties": {
                "fid": 17,
                "id": 17,
                "road": "과거로(路), 동국의 불교와 역사의 길",
                "level": "D",
                "name": "수표교(장충단공원 내)",
                "address": null,
                "detail": "본래 을미사변, 임오군란, 갑신정변 당시에 순절한 문신들을 기리는 제사를 지냈다가, 일제강점기에 민족 말살의 정책으로 공원으로 바뀌었다. 광복 이후에는 정치유세를 위한 장소로 활용되다가, 2009년에 이르러 과거를 기억하며 장충단비, 수표교, 사명대사동상, 이준열사동상, 이한응선생기념비, 한국유림독립운동파리장서비 등 다양한 역사적 상징물이 위치하게 되었다."
            },
            "geometry": {
                "type": "Point",
                "coordinates": [
                    127.005069,
                    37.558115,
                    127.005069
                ]
            }
        },
        {
            "type": "Feature",
            "properties": {
                "fid": 18,
                "id": 18,
                "road": "과거로(路), 동국의 불교와 역사의 길",
                "level": "D",
                "name": "장충단공원 순회(시계방향)",
                "address": null,
                "detail": "이곳을 기점으로 시계방향으로 돌아서 태극당으로 향한다."
            },
            "geometry": {
                "type": "Point",
                "coordinates": [
                    127.004322,
                    37.557776,
                    127.004322
                ]
            }
        },
        {
            "type": "Feature",
            "properties": {
                "fid": 19,
                "id": 19,
                "road": "과거로(路), 동국의 불교와 역사의 길",
                "level": "D",
                "name": "태극당",
                "address": "서울 중구 동호로24길 7",
                "detail": "1946년에 문을 연 빵집으로,  서울특별시의 가장 오래된 빵집이자 전라북도 군산시의 이성당, 전주시의 PNB풍년제과, 대전광역시의 성심당과 같이 지역을 대표하는 빵집으로 꼽힌다. 1945년 광복이후에 일본의 '미도리야'제과점과 제과기계를 인수하였고, 46년에 명동에 첫 제과점을 열었으며, 이후 1973년에 현재의 위치로 이전하였다."
            },
            "geometry": {
                "type": "Point",
                "coordinates": [
                    127.0050573,
                    37.559551,
                    127.0050573
                ]
            }
        },
        {
            "type": "Feature",
            "properties": {
                "fid": 20,
                "id": 20,
                "road": "과거로(路), 동국의 불교와 역사의 길",
                "level": "D",
                "name": "사명대사동상",
                "address": null,
                "detail": "1968년에 만들어진 동상으로, 임진왜란때에 활약했던 승병장인 사명대사의 모습을 본떠 만든 동상이다."
            },
            "geometry": {
                "type": "Point",
                "coordinates": [
                    127.004357,
                    37.558718,
                    127.004357
                ]
            }
        },
        {
            "type": "Feature",
            "properties": {
                "fid": 21,
                "id": 21,
                "road": "과거로(路), 동국의 불교와 역사의 길",
                "level": "D",
                "name": "이해랑예술극장",
                "address": null,
                "detail": "동국대학교 연극학과를 창설하고 후학을 양성해 왔던 이해랑 선생을 기리며 건설되었다. 한국연극 100주년이자 동국대 연극학부 창설 50주년을 맞아 이해랑연극재단으로부터 20억 원의 발전기금을 기부 받아 기존의 동국대 예술극장을 전면 리모델링하여 2008년 11월 29일 정식 개관하였다. 이해랑예술극장은 연극전용극장으로서 공연문화 발전에 기여했고, 현재에도 다양한 공원과 행사가 이루어지고 있다"
            },
            "geometry": {
                "type": "Point",
                "coordinates": [
                    127.003238,
                    37.558281,
                    127.003238
                ]
            }
        },
        {
            "type": "Feature",
            "properties": {
                "fid": 22,
                "id": 22,
                "road": "과거로(路), 동국의 불교와 역사의 길",
                "level": "D",
                "name": "동국대학교 박물관",
                "address": null,
                "detail": "동국대학교 박물관은 고故 황수영 박사를 초대관장으로 하여 1963년 9월 1일에 개관하였다. 국내 유일 불교종립대학의 종합박물관으로서 개관 초반부터 불교미술을 중심으로 국내외 학술 조사와 문화유산 수집·연구를 꾸준히 진행하였다. 불교미술을 비롯한 여러 분야의 문화유산(국보 2점과 보물 8점 등)을 소유하고 있고, 상설전시에는 다채로운 불교문화유산을 관람할 수 있다."
            },
            "geometry": {
                "type": "Point",
                "coordinates": [
                    127.002346,
                    37.558233,
                    127.002346
                ]
            }
        },
        {
            "type": "Feature",
            "properties": {
                "fid": 23,
                "id": 23,
                "road": "과거로(路), 동국의 불교와 역사의 길",
                "level": "D",
                "name": "카페 ING",
                "address": null,
                "detail": "동국대 내부에 위치한 카페이다."
            },
            "geometry": {
                "type": "Point",
                "coordinates": [
                    127.001589,
                    37.557286,
                    127.001589
                ]
            }
        },
        {
            "type": "Feature",
            "properties": {
                "fid": 24,
                "id": 24,
                "road": "과거로(路), 동국의 불교와 역사의 길",
                "level": "D",
                "name": "정각원",
                "address": null,
                "detail": "본래 경희궁의 정전이었던 숭정전이고, 일제강점기에 동국대학교 북쪽으로 옮겨졌다가, 77년에 현재의 위치에서 법당으로 다시 개원하였다. 정각원은 조선후기의 건축양식을 잘 보여주고 있고, 현재 서울시 지방유형문화제 20호로 지정되어있다.“섭심, 도세, 자애, 신실”의 교훈을 사방에 새긴 “동국의 종”이 전통적 방식으로 주조되어 종각에 안치되어있고, 매일 아침과 저녁에 울며, 입학식과 졸업식 및 중요한 학교행사와 법요식 때에 타종된다."
            },
            "geometry": {
                "type": "Point",
                "coordinates": [
                    127.00112,
                    37.557525,
                    127.00112
                ]
            }
        },
        {
            "type": "Feature",
            "properties": {
                "fid": 25,
                "id": 25,
                "road": "과거로(路), 동국의 불교와 역사의 길",
                "level": "D",
                "name": "팔정도(명진관)",
                "address": null,
                "detail": "故 송민구 건축가가 설계한 동국대학교의 가장 오래된 건축물로, 국가등록문화제 제734호로 등록되어 있다. 현재 동국대를 상징하는 대표 건축물이며, 동국대학교 최초의 교명인 '명인학교'에서 따왔다. 명진이라는 이름은 '개명진보'라는 \"지혜를 개발해 문화가 발달되어 결과적으로 발전을 이룬다.\"라는 뜻을 담고 있다. 전형적인 튜더풍 고딕양식으로 지어졌고, 그 보존상태와 건축미가 우수하다."
            },
            "geometry": {
                "type": "Point",
                "coordinates": [
                    126.999986,
                    37.55767800000001,
                    126.999986
                ]
            }
        },
        {
            "type": "Feature",
            "properties": {
                "fid": 26,
                "id": 26,
                "road": "과거로(路), 동국의 불교와 역사의 길",
                "level": "D",
                "name": "블루포트",
                "address": null,
                "detail": "동국대 내부에 위치한 교내 카페이다."
            },
            "geometry": {
                "type": "Point",
                "coordinates": [
                    126.999302,
                    37.559027,
                    126.999302
                ]
            }
        },
        {
            "type": "Feature",
            "properties": {
                "fid": 27,
                "id": 27,
                "road": "과거로(路), 동국의 불교와 역사의 길",
                "level": "D",
                "name": "동국대학교 후문(학림관)",
                "address": null,
                "detail": "블루포트 맞은 편에 위치한 만해광장을 따라 올라간 다음, 가파른 언덕을 내려오면 학림관 건물이 보인다. 이곳을 통과하여 나무 계단을 내려가면 동국대학교 후문을 통해 학교 외부로 나갈 수 있다."
            },
            "geometry": {
                "type": "Point",
                "coordinates": [
                    126.999812,
                    37.560224,
                    126.999812
                ]
            }
        },
        {
            "type": "Feature",
            "properties": {
                "fid": 28,
                "id": 28,
                "road": "과거로(路), 동국의 불교와 역사의 길",
                "level": "D",
                "name": "이산책방(구 녹원사)",
                "address": "서울 중구 필동로 24 1층",
                "detail": "서애로에 위치한 책방이자 옛 인쇄소이다. 이산인문예술학당에서 관리하는 곳으로, 불교와 철학을 포함한 다양한 서적을 보유하고 있다."
            },
            "geometry": {
                "type": "Point",
                "coordinates": [
                    126.996047,
                    37.5595654,
                    126.996047
                ]
            }
        }
    ]
}